[
    {
        "CCSDS_OMM_VERS": "3.0",
        "COMMENT": "GENERATED VIA SPACE-TRACK.ORG API",
        "CREATION_DATE": "2025-04-12T03:00:55",
        "ORIGINATOR": "18 SPCS",
        "OBJECT_NAME": "COSMOS 2547 (GLONASS)",
        "OBJECT_ID": "2020-075A",
        "CENTER_NAME": "EARTH",
        "REF_FRAME": "TEME",
        "TIME_SYSTEM": "UTC",
        "MEAN_ELEMENT_THEORY": "SGP4",
        "EPOCH": "2025-04-11T05:19:45.247872",
        "MEAN_MOTION": "2.13100377",
        "ECCENTRICITY": "0.00074570",
        "INCLINATION": "64.5959",
        "RA_OF_ASC_NODE": "206.8963",
        "ARG_OF_PERICENTER": "236.3937",
        "MEAN_ANOMALY": "123.5384",
        "EPHEMERIS_TYPE": "0",
        "CLASSIFICATION_TYPE": "U",
        "NORAD_CAT_ID": "46805",
        "ELEMENT_SET_NO": "999",
        "REV_AT_EPOCH": "3470",
        "BSTAR": "0.00000000000000",
        "MEAN_MOTION_DOT": "-0.00000017",
        "MEAN_MOTION_DDOT": "0.0000000000000",
        "SEMIMAJOR_AXIS": "25508.154",
        "PERIOD": "675.738",
        "APOAPSIS": "19149.040",
        "PERIAPSIS": "19110.998",
        "OBJECT_TYPE": "PAYLOAD",
        "RCS_SIZE": "LARGE",
        "COUNTRY_CODE": "CIS",
        "LAUNCH_DATE": "2020-10-25",
        "SITE": "PKMTR",
        "DECAY_DATE": null,
        "FILE": "4699215",
        "GP_ID": "285401586",
        "TLE_LINE0": "0 COSMOS 2547 (GLONASS)",
        "TLE_LINE1": "1 46805U 20075A   25101.22205148 -.00000017  00000-0  00000-0 0  9999",
        "TLE_LINE2": "2 46805  64.5959 206.8963 0007457 236.3937 123.5384  2.13100377 34707"
    }
]